CCSDS_OMM_VERS = 2.0
CREATION_DATE  = 
ORIGINATOR     = 

OBJECT_NAME    = SHIJIAN-16 (SJ-16)
OBJECT_ID      = 2013-057A
CENTER_NAME    = EARTH
REF_FRAME      = TEME
TIME_SYSTEM    = UTC
MEAN_ELEMENT_THEORY = SGP/SGP4

EPOCH          = 2025-12-02T05:00:25.440192
MEAN_MOTION    = 14.91943741
ECCENTRICITY   = .0017294
INCLINATION    = 74.9737
RA_OF_ASC_NODE = 9.5801
ARG_OF_PERICENTER = 344.6794
MEAN_ANOMALY   = 15.3868

EPHEMERIS_TYPE = 0
CLASSIFICATION_TYPE = U
NORAD_CAT_ID   = 39358
ELEMENT_SET_NO = 999
REV_AT_EPOCH   = 65696
BSTAR          = .20201E-3
MEAN_MOTION_DOT = .2022E-4
MEAN_MOTION_DDOT = 0

CCSDS_OMM_VERS = 2.0
CREATION_DATE  = 
ORIGINATOR     = 

OBJECT_NAME    = SL-4 R/B
OBJECT_ID      = 2014-021B
CENTER_NAME    = EARTH
REF_FRAME      = TEME
TIME_SYSTEM    = UTC
MEAN_ELEMENT_THEORY = SGP/SGP4

EPOCH          = 2025-12-01T14:58:14.672352
MEAN_MOTION    = 15.36235478
ECCENTRICITY   = .0102777
INCLINATION    = 51.6063
RA_OF_ASC_NODE = 94.5995
ARG_OF_PERICENTER = 106.2496
MEAN_ANOMALY   = 254.9823

EPHEMERIS_TYPE = 0
CLASSIFICATION_TYPE = U
NORAD_CAT_ID   = 39679
ELEMENT_SET_NO = 999
REV_AT_EPOCH   = 64118
BSTAR          = .37110009E-3
MEAN_MOTION_DOT = .15475E-3
MEAN_MOTION_DDOT = 0

CCSDS_OMM_VERS = 2.0
CREATION_DATE  = 
ORIGINATOR     = 

OBJECT_NAME    = ALOS-2
OBJECT_ID      = 2014-029A
CENTER_NAME    = EARTH
REF_FRAME      = TEME
TIME_SYSTEM    = UTC
MEAN_ELEMENT_THEORY = SGP/SGP4

EPOCH          = 2025-12-02T04:36:48.583872
MEAN_MOTION    = 14.79507399
ECCENTRICITY   = .0001381
INCLINATION    = 97.9234
RA_OF_ASC_NODE = 71.1886
ARG_OF_PERICENTER = 98.7249
MEAN_ANOMALY   = 261.4119

EPHEMERIS_TYPE = 0
CLASSIFICATION_TYPE = U
NORAD_CAT_ID   = 39766
ELEMENT_SET_NO = 999
REV_AT_EPOCH   = 62245
BSTAR          = .33805E-3
MEAN_MOTION_DOT = .2476E-4
MEAN_MOTION_DDOT = 0

CCSDS_OMM_VERS = 2.0
CREATION_DATE  = 
ORIGINATOR     = 

OBJECT_NAME    = YAOGAN-29
OBJECT_ID      = 2015-069A
CENTER_NAME    = EARTH
REF_FRAME      = TEME
TIME_SYSTEM    = UTC
MEAN_ELEMENT_THEORY = SGP/SGP4

EPOCH          = 2025-12-02T05:24:53.324352
MEAN_MOTION    = 14.82863260
ECCENTRICITY   = .0000852
INCLINATION    = 98.0229
RA_OF_ASC_NODE = 359.3631
ARG_OF_PERICENTER = 10.8012
MEAN_ANOMALY   = 349.3219

EPHEMERIS_TYPE = 0
CLASSIFICATION_TYPE = U
NORAD_CAT_ID   = 41038
ELEMENT_SET_NO = 999
REV_AT_EPOCH   = 54143
BSTAR          = .80173E-4
MEAN_MOTION_DOT = .595E-5
MEAN_MOTION_DDOT = 0

CCSDS_OMM_VERS = 2.0
CREATION_DATE  = 
ORIGINATOR     = 

OBJECT_NAME    = ASTRO-H (HITOMI)
OBJECT_ID      = 2016-012A
CENTER_NAME    = EARTH
REF_FRAME      = TEME
TIME_SYSTEM    = UTC
MEAN_ELEMENT_THEORY = SGP/SGP4

EPOCH          = 2025-12-02T04:11:56.061024
MEAN_MOTION    = 15.09244456
ECCENTRICITY   = .0009473
INCLINATION    = 31.0002
RA_OF_ASC_NODE = 265.4760
ARG_OF_PERICENTER = 71.1508
MEAN_ANOMALY   = 289.0157

EPHEMERIS_TYPE = 0
CLASSIFICATION_TYPE = U
NORAD_CAT_ID   = 41337
ELEMENT_SET_NO = 999
REV_AT_EPOCH   = 53748
BSTAR          = .25077E-3
MEAN_MOTION_DOT = .4187E-4
MEAN_MOTION_DDOT = 0

CCSDS_OMM_VERS = 2.0
CREATION_DATE  = 
ORIGINATOR     = 

OBJECT_NAME    = HXMT (HUIYAN)
OBJECT_ID      = 2017-034A
CENTER_NAME    = EARTH
REF_FRAME      = TEME
TIME_SYSTEM    = UTC
MEAN_ELEMENT_THEORY = SGP/SGP4

EPOCH          = 2025-12-02T02:50:30.884064
MEAN_MOTION    = 15.16109299
ECCENTRICITY   = .0033072
INCLINATION    = 43.0132
RA_OF_ASC_NODE = 198.5643
ARG_OF_PERICENTER = 335.7036
MEAN_ANOMALY   = 24.2252

EPHEMERIS_TYPE = 0
CLASSIFICATION_TYPE = U
NORAD_CAT_ID   = 42758
ELEMENT_SET_NO = 999
REV_AT_EPOCH   = 46772
BSTAR          = .31115E-3
MEAN_MOTION_DOT = .5951E-4
MEAN_MOTION_DDOT = 0

CCSDS_OMM_VERS = 2.0
CREATION_DATE  = 
ORIGINATOR     = 

OBJECT_NAME    = CZ-2C R/B
OBJECT_ID      = 2018-054D
CENTER_NAME    = EARTH
REF_FRAME      = TEME
TIME_SYSTEM    = UTC
MEAN_ELEMENT_THEORY = SGP/SGP4

EPOCH          = 2025-12-02T03:13:34.887648
MEAN_MOTION    = 15.71426149
ECCENTRICITY   = .0017983
INCLINATION    = 35.1348
RA_OF_ASC_NODE = 252.6774
ARG_OF_PERICENTER = 32.1672
MEAN_ANOMALY   = 328.0154

EPHEMERIS_TYPE = 0
CLASSIFICATION_TYPE = U
NORAD_CAT_ID   = 43521
ELEMENT_SET_NO = 999
REV_AT_EPOCH   = 41338
BSTAR          = .75047E-3
MEAN_MOTION_DOT = .101468E-2
MEAN_MOTION_DDOT = 0

CCSDS_OMM_VERS = 2.0
CREATION_DATE  = 
ORIGINATOR     = 

OBJECT_NAME    = SAOCOM 1A
OBJECT_ID      = 2018-076A
CENTER_NAME    = EARTH
REF_FRAME      = TEME
TIME_SYSTEM    = UTC
MEAN_ELEMENT_THEORY = SGP/SGP4

EPOCH          = 2025-12-02T03:21:58.501152
MEAN_MOTION    = 14.82158308
ECCENTRICITY   = .0001578
INCLINATION    = 97.8848
RA_OF_ASC_NODE = 160.7167
ARG_OF_PERICENTER = 87.2005
MEAN_ANOMALY   = 272.9389

EPHEMERIS_TYPE = 0
CLASSIFICATION_TYPE = U
NORAD_CAT_ID   = 43641
ELEMENT_SET_NO = 999
REV_AT_EPOCH   = 38691
BSTAR          = .85475E-4
MEAN_MOTION_DOT = .628E-5
MEAN_MOTION_DDOT = 0

CCSDS_OMM_VERS = 2.0
CREATION_DATE  = 
ORIGINATOR     = 

OBJECT_NAME    = H-2A R/B
OBJECT_ID      = 2018-084L
CENTER_NAME    = EARTH
REF_FRAME      = TEME
TIME_SYSTEM    = UTC
MEAN_ELEMENT_THEORY = SGP/SGP4

EPOCH          = 2025-12-02T03:30:58.231584
MEAN_MOTION    = 15.36795473
ECCENTRICITY   = .0028193
INCLINATION    = 98.8781
RA_OF_ASC_NODE = 168.0343
ARG_OF_PERICENTER = 2.7908
MEAN_ANOMALY   = 357.3483

EPHEMERIS_TYPE = 0
CLASSIFICATION_TYPE = U
NORAD_CAT_ID   = 43682
ELEMENT_SET_NO = 999
REV_AT_EPOCH   = 39077
BSTAR          = .60704E-3
MEAN_MOTION_DOT = .2205E-3
MEAN_MOTION_DDOT = 0

CCSDS_OMM_VERS = 2.0
CREATION_DATE  = 
ORIGINATOR     = 

OBJECT_NAME    = SAOCOM 1B
OBJECT_ID      = 2020-059A
CENTER_NAME    = EARTH
REF_FRAME      = TEME
TIME_SYSTEM    = UTC
MEAN_ELEMENT_THEORY = SGP/SGP4

EPOCH          = 2025-12-02T04:06:55.916064
MEAN_MOTION    = 14.82167071
ECCENTRICITY   = .0001355
INCLINATION    = 97.8843
RA_OF_ASC_NODE = 159.8487
ARG_OF_PERICENTER = 90.1444
MEAN_ANOMALY   = 269.9925

EPHEMERIS_TYPE = 0
CLASSIFICATION_TYPE = U
NORAD_CAT_ID   = 46265
ELEMENT_SET_NO = 999
REV_AT_EPOCH   = 28430
BSTAR          = .88736E-4
MEAN_MOTION_DOT = .654E-5
MEAN_MOTION_DDOT = 0

CCSDS_OMM_VERS = 2.0
CREATION_DATE  = 
ORIGINATOR     = 

OBJECT_NAME    = CSS (TIANHE)
OBJECT_ID      = 2021-035A
CENTER_NAME    = EARTH
REF_FRAME      = TEME
TIME_SYSTEM    = UTC
MEAN_ELEMENT_THEORY = SGP/SGP4

EPOCH          = 2025-12-02T00:22:16.633056
MEAN_MOTION    = 15.58503617
ECCENTRICITY   = .0010327
INCLINATION    = 41.4674
RA_OF_ASC_NODE = 81.7809
ARG_OF_PERICENTER = 310.2808
MEAN_ANOMALY   = 49.7127

EPHEMERIS_TYPE = 0
CLASSIFICATION_TYPE = U
NORAD_CAT_ID   = 48274
ELEMENT_SET_NO = 999
REV_AT_EPOCH   = 26235
BSTAR          = .30849E-3
MEAN_MOTION_DOT = .24034E-3
MEAN_MOTION_DDOT = 0

CCSDS_OMM_VERS = 2.0
CREATION_DATE  = 
ORIGINATOR     = 

OBJECT_NAME    = COSMOS 2550
OBJECT_ID      = 2021-056A
CENTER_NAME    = EARTH
REF_FRAME      = TEME
TIME_SYSTEM    = UTC
MEAN_ELEMENT_THEORY = SGP/SGP4

EPOCH          = 2025-11-29T19:33:31.970304
MEAN_MOTION    = 15.33825458
ECCENTRICITY   = .00083936
INCLINATION    = 67.1430
RA_OF_ASC_NODE = 343.0291
ARG_OF_PERICENTER = 269.4513
MEAN_ANOMALY   = 90.5680

EPHEMERIS_TYPE = 0
CLASSIFICATION_TYPE = U
NORAD_CAT_ID   = 48865
ELEMENT_SET_NO = 999
REV_AT_EPOCH   = 24814
BSTAR          = .1467811E-5
MEAN_MOTION_DOT = -.143E-5
MEAN_MOTION_DDOT = 0

