SHIJIAN-16 (SJ-16)      
1 39358U 13057A   25336.20862778  .00002022  00000+0  20201-3 0  9996
2 39358  74.9737   9.5801 0017294 344.6794  15.3868 14.91943741656966
SL-4 R/B                
1 39679U 14021B   25335.62378093  .00015475  00000+0  37110-3 0  9994
2 39679  51.6063  94.5995 0102777 106.2496 254.9823 15.36235478641187
ALOS-2                  
1 39766U 14029A   25336.19222898  .00002476  00000+0  33805-3 0  9997
2 39766  97.9234  71.1886 0001381  98.7249 261.4119 14.79507399622457
YAOGAN-29               
1 41038U 15069A   25336.22561718  .00000595  00000+0  80173-4 0  9999
2 41038  98.0229 359.3631 0000852  10.8012 349.3219 14.82863260541433
ASTRO-H (HITOMI)        
1 41337U 16012A   25336.17495441  .00004187  00000+0  25077-3 0  9995
2 41337  31.0002 265.4760 0009473  71.1508 289.0157 15.09244456537480
HXMT (HUIYAN)           
1 42758U 17034A   25336.11841301  .00005951  00000+0  31115-3 0  9992
2 42758  43.0132 198.5643 0033072 335.7036  24.2252 15.16109299467725
CZ-2C R/B               
1 43521U 18054D   25336.13443157  .00101468  00000+0  75047-3 0  9995
2 43521  35.1348 252.6774 0017983  32.1672 328.0154 15.71426149413385
SAOCOM 1A               
1 43641U 18076A   25336.14026043  .00000628  00000+0  85475-4 0  9997
2 43641  97.8848 160.7167 0001578  87.2005 272.9389 14.82158308386912
H-2A R/B                
1 43682U 18084L   25336.14650731  .00022050  00000+0  60704-3 0  9998
2 43682  98.8781 168.0343 0028193   2.7908 357.3483 15.36795473390779
SAOCOM 1B               
1 46265U 20059A   25336.17148051  .00000654  00000+0  88736-4 0  9995
2 46265  97.8843 159.8487 0001355  90.1444 269.9925 14.82167071284308
CSS (TIANHE)            
1 48274U 21035A   25336.01547029  .00024034  00000+0  30849-3 0  9992
2 48274  41.4674  81.7809 0010327 310.2808  49.7127 15.58503617262350
COSMOS 2550             
1 48865U 21056A   25333.81495336 -.00000143  00000+0  14678-5 0  9999
2 48865  67.1430 343.0291 0008393 269.4513  90.5680 15.33825458248140
